              M50 Cartesian                         M50 Keplerian  
    -----------------------------------       --------------------------------
     X    =        -139505.45                 A    =         6777833.56  meter
     Y    =       -4206534.07  meter          E    =           .0001696
     Z    =        5313912.69                 I    =           51.64310
     XDOT =       7652.934044                 Wp   =          304.71045
     YDOT =       -449.150212  meter/sec      RA   =          175.73188  deg
     ZDOT =       -153.729965                 TA   =          146.75995
                                              MA   =          146.74930
                                              Ha   =            219.899  n.mi
                                              Hp   =            216.324
 
              M50 Cartesian                         J2K Cartesian  
    -----------------------------------       --------------------------------
     X    =        -457695.06                 X    =         -118269.28
     Y    =      -13800964.79  feet           Y    =        -4207974.73  meter
     Z    =       17434096.76                 Z    =         5313287.10
     XDOT =      25108.051325                 XDOT =        7658.134525
     YDOT =      -1473.589933  feet/sec       YDOT =        -363.540959  meter/sec
     ZDOT =       -504.363403                 ZDOT =        -116.541242
 
              TDR Cartesian                         TDR Cartesian  
    -----------------------------------       --------------------------------
     X    =       11320444.16                 X    =         3450471.38
     Y    =        7911743.80  feet           Y    =         2411499.51  meter
     Z    =       17432030.80                 Z    =         5313282.99
     XDOT =     -13472.587548                 XDOT =       -4106.444685
     YDOT =      20039.147090  feet/sec       YDOT =        6107.932033  meter/sec
     ZDOT =       -342.869488                 ZDOT =        -104.506620
  
  
    The mean element set is posted at the UTC for which position is
    just north of the next ascending node relative to the above
    vector time
 
 
    TWO LINE MEAN ELEMENT SET
  
    ISS
    1 25544U 98067A   16073.22114106  .00016717  00000-0  10270-3 0  9146
    2 25544  51.6417 176.6318 0003888 281.2023  78.8693 15.53962948 30054
  
  
    Satellite: ISS
    Catalog Number: 25544
    Epoch time:      16073.22114106   =   yrday.fracday
    Element set:     914
    Inclination:       51.6417  deg
    RA of node:       176.6318  deg
    Eccentricity:     .0003888     
    Arg of perigee:   281.2023  deg
    Mean anomaly:      78.8693  deg
    Mean motion:   15.53962948  rev/day
    Decay rate:    1.67170E-04  rev/day^2
    Epoch rev:            3005
    Checksum:              314
 
 
    Coasting Arc #16 (Orbit 3019)
    ---------------------------------------
 
    Vector Time (GMT): 2016/074/04:09:13.568
    Vector Time (MET): N/A
    Weight (LBS)     : 890679.4
 
              M50 Cartesian                         M50 Keplerian  
    -----------------------------------       --------------------------------
     X    =       -1590733.51                 A    =         6779012.02  meter
     Y    =        4279224.47  meter          E    =           .0008929
     Z    =       -5019423.22                 I    =           51.67783
     XDOT =      -7384.435859                 Wp   =          104.56658
     YDOT =       -398.187030  meter/sec      RA   =          170.73418  deg
     ZDOT =       2001.562675                 TA   =          184.88061
                                              MA   =          184.88932
                                              Ha   =            219.898  n.mi
                                              Hp   =            216.228
 
              M50 Cartesian                         J2K Cartesian  
    -----------------------------------       --------------------------------
     X    =       -5218941.97                 X    =        -1614084.46
     Y    =       14039450.37  feet           Y    =         4261304.75  meter
     Z    =      -16467923.95                 Z    =        -5027207.76
     XDOT =     -24227.151768                 XDOT =       -7389.157126
     YDOT =      -1306.387893  feet/sec       YDOT =        -480.790888  meter/sec
     ZDOT =       6566.806678                 ZDOT =        1965.679550
 
              TDR Cartesian                         TDR Cartesian  
    -----------------------------------       --------------------------------
     X    =       -8280585.35                 X    =        -2523922.41
     Y    =      -12435406.34  feet           Y    =        -3790311.85  meter
     Z    =      -16502382.15                 Z    =        -5029926.08
     XDOT =      14522.203943                 XDOT =        4426.367762
     YDOT =     -18174.564494  feet/sec       YDOT =       -5539.607258  meter/sec
     ZDOT =       6411.091825                 ZDOT =        1954.100788
  
  
    The mean element set is posted at the UTC for which position is
    just north of the next ascending node relative to the above
    vector time
 
 
    TWO LINE MEAN ELEMENT SET
  
    ISS
    1 25544U 98067A   16074.18576850  .00016717  00000-0  10270-3 0  9151
    2 25544  51.6403 171.8225 0003964 285.5227  74.5487 15.53992922 30207
  
  
    Satellite: ISS
    Catalog Number: 25544
    Epoch time:      16074.18576850   =   yrday.fracday
    Element set:     915
    Inclination:       51.6403  deg
    RA of node:       171.8225  deg
    Eccentricity:     .0003964     
    Arg of perigee:   285.5227  deg
    Mean anomaly:      74.5487  deg
    Mean motion:   15.53992922  rev/day
    Decay rate:    1.67170E-04  rev/day^2
    Epoch rev:            3020
    Checksum:              322
 
 
    Coasting Arc #17 (Orbit 3035)
    ---------------------------------------
 
    Vector Time (GMT): 2016/075/04:09:13.568
    Vector Time (MET): N/A
    Weight (LBS)     : 890679.4
 
              M50 Cartesian                         M50 Keplerian  
    -----------------------------------       --------------------------------
     X    =        3189588.00                 A    =         6781997.64  meter
     Y    =       -4244432.08  meter          E    =           .0007147
     Z    =        4217538.74                 I    =           51.71997
     XDOT =       6604.793456                 Wp   =           54.51974
     YDOT =       1309.434870  meter/sec      RA   =          165.74609  deg
     ZDOT =      -3668.779420                 TA   =           73.07296
                                              MA   =           72.99462
                                              Ha   =            219.838  n.mi
                                              Hp   =            216.234
 
              M50 Cartesian                         J2K Cartesian  
    -----------------------------------       --------------------------------
     X    =       10464527.54                 X    =         3216326.32
     Y    =      -13925302.11  feet           Y    =        -4208614.09  meter
     Z    =       13837069.37                 Z    =         4233098.25
     XDOT =      21669.269869                 XDOT =        6607.481437
     YDOT =       4296.046162  feet/sec       YDOT =        1383.308744  meter/sec
     ZDOT =     -12036.677888                 ZDOT =       -3636.688698
 
              TDR Cartesian                         TDR Cartesian  
    -----------------------------------       --------------------------------
     X    =        5356269.35                 X    =         1632590.90
     Y    =       16517815.92  feet           Y    =         5034630.29  meter
     Z    =       13905286.77                 Z    =         4238331.41
     XDOT =     -14878.245358                 XDOT =       -4534.889185
     YDOT =      14863.546486  feet/sec       YDOT =        4530.408969  meter/sec
     ZDOT =     -11897.550483                 ZDOT =       -3626.373387
  
  
    The mean element set is posted at the UTC for which position is
    just north of the next ascending node relative to the above
    vector time
 
 
    TWO LINE MEAN ELEMENT SET
  
    ISS
    1 25544U 98067A   16075.21469268  .00016717  00000-0  10270-3 0  9161
    2 25544  51.6406 166.6940 0004115 290.1791  69.8919 15.54030119 30369
  
  
    Satellite: ISS
    Catalog Number: 25544
    Epoch time:      16075.21469268   =   yrday.fracday
    Element set:     916
    Inclination:       51.6406  deg
    RA of node:       166.6940  deg
    Eccentricity:     .0004115     
    Arg of perigee:   290.1791  deg
    Mean anomaly:      69.8919  deg
    Mean motion:   15.54030119  rev/day
    Decay rate:    1.67170E-04  rev/day^2
    Epoch rev:            3036
    Checksum:              314
 
             </PRE>
           </TD>
        </TR>
    </TABLE>
    
    <table align="center" border="0" width="600" cellpadding="0" cellspacing="0">
      <tr>
        <td align="center" valign="top"><hr size="1" width="600" noshade="noshade" />
        <font face="Arial,helvetica" size="-2">Curator: <a href="/cgi-bin/comment.cgi?jsc-hsfwebma@mail.nasa.gov">Kim 
          Dismukes</a> | Responsible NASA Official: <a href="/cgi-bin/comment.cgi?jsc-hsfwebma@mail.nasa.gov">Amiko Kauderer</a> | Updated: 06/08/2009<br />
        <a href="http://www.nasa.gov/about/highlights/HP_Privacy.html">Privacy Policy and Important Notices</a></font></td>
      </tr>
    </table>
    </body>
    </html>
